AMAZONAS 4A             
1 39616U 14011A   17345.77896544 -.00000261  00000-0  00000+0 0  9991
2 39616   0.0636  66.1292 0000131 257.8240 330.5164  1.00018155 13682
